     2.100          NAVIGATION                              RINEX VERSION / TYPE
fic2rin                                 02/05/2009 01:49:24 PGM / RUN BY / DATE
                                                            END OF HEADER
14 09  2  4 19  0  0.0 -.158782117069D-03  .534328137292D-11  .000000000000D+00
     .161000000000D+03  .163750000000D+02  .393230665350D-08  .267733463853D+00
     .817701220512D-06  .442098453641D-02  .263750553131D-05  .515357360268D+04
     .327600000000D+06 -.223517417908D-07 -.254500403130D+01  .596046447754D-07
     .988976772452D+00  .344562500000D+03 -.209901830778D+01 -.810283751571D-08
    -.507163982558D-10  .100000000000D+01  .151700000000D+04  .000000000000D+00
     .340000000000D+01  .000000000000D+00 -.931322574615D-08  .161000000000D+03
     .316806000000D+06  .600000000000D+01
23 09  2  4 19  0  0.0  .386421103030D-03  .682121026330D-12  .000000000000D+00
     .116000000000D+03  .143437500000D+02  .432982321166D-08 -.243621479835D+00
     .601634383202D-06  .577504467219D-02  .202283263206D-05  .515364990044D+04
     .327600000000D+06  .577419996262D-07 -.257554809014D+01 -.115483999252D-06
     .971028495326D+00  .345062500000D+03  .288267770819D+01 -.833248993879D-08
    -.585738684082D-10  .100000000000D+01  .151700000000D+04  .000000000000D+00
     .340000000000D+01  .000000000000D+00 -.200234353542D-07  .116000000000D+03
     .316806000000D+06  .600000000000D+01
 4 09  2  4 17 59 44.0 -.324546359479D-03 -.138697942020D-10  .000000000000D+00
     .300000000000D+01  .346562500000D+02  .509021202776D-08  .229610874349D+01
     .169686973095D-05  .863662140910D-02  .973232090473D-05  .515367197418D+04
     .323984000000D+06 -.221654772758D-06  .161519085953D+01 -.894069671631D-07
     .940721446767D+00  .183593750000D+03  .473482861936D+00 -.804390648956D-08
    -.513949979508D-09  .100000000000D+01  .151700000000D+04  .000000000000D+00
     .240000000000D+01  .000000000000D+00 -.605359673500D-08  .300000000000D+01
     .317946000000D+06  .400000000000D+01
 9 09  2  4 17 59 28.0  .386890023947D-04  .204636307899D-11  .000000000000D+00
     .920000000000D+02 -.110843750000D+03  .397230831973D-08  .299559365164D+01
    -.569410622120D-05  .201729719993D-01  .511854887009D-05  .515365390015D+04
     .323968000000D+06  .227242708206D-06 -.156780154770D+01 -.782310962677D-07
     .974616572555D+00  .287656250000D+03  .145913537834D+01 -.756638659894D-08
    -.392873507616D-11  .100000000000D+01  .151700000000D+04  .000000000000D+00
     .240000000000D+01  .000000000000D+00 -.558793544769D-08  .920000000000D+02
     .318756000000D+06  .400000000000D+01
23 09  2  4 17 59 44.0  .386419240385D-03  .682121026330D-12  .000000000000D+00
     .700000000000D+01  .113125000000D+02  .430160775066D-08 -.771032716013D+00
     .484287738800D-06  .577529089060D-02  .200979411602D-05  .515365034103D+04
     .323984000000D+06 -.316649675369D-07 -.257551814860D+01 -.145286321640D-06
     .971028744022D+00  .345437500000D+03  .288265833038D+01 -.830320300459D-08
    -.250010413937D-10  .100000000000D+01  .151700000000D+04  .000000000000D+00
     .240000000000D+01  .000000000000D+00 -.200234353542D-07  .700000000000D+01
     .319956000000D+06  .400000000000D+01
27 09  2  4 17 59 44.0  .219782814384D-04  .306954461848D-11  .000000000000D+00
     .140000000000D+02 -.124968750000D+03  .414624413628D-08  .122684285461D+01
    -.684335827827D-05  .210705798818D-01  .568479299545D-05  .515518781090D+04
     .323984000000D+06 -.245869159698D-06 -.159184012395D+01 -.404193997383D-06
     .972653327715D+00  .284593750000D+03 -.165196697279D+01 -.819462705339D-08
    -.692886004340D-10  .100000000000D+01  .151700000000D+04  .000000000000D+00
     .240000000000D+01  .000000000000D+00 -.419095158577D-08  .140000000000D+02
     .320136000000D+06  .400000000000D+01
14 09  2  4 17 59 44.0 -.158803537488D-03  .534328137292D-11  .000000000000D+00
     .270000000000D+02  .100000000000D+02  .397052253106D-08 -.259759540668D+00
     .549480319023D-06  .442029873375D-02  .265054404736D-05  .515357235527D+04
     .323984000000D+06  .204890966415D-07 -.254497480512D+01  .409781932831D-07
     .988976909967D+00  .344625000000D+03 -.209897805559D+01 -.811748098281D-08
    -.350014579512D-10  .100000000000D+01  .151700000000D+04  .000000000000D+00
     .240000000000D+01  .000000000000D+00 -.931322574615D-08  .270000000000D+02
     .320436000000D+06  .400000000000D+01
26 09  2  4 17 59 44.0  .420226715505D-04  .306954461848D-11  .000000000000D+00
     .170000000000D+02  .169687500000D+02  .386623247267D-08 -.120990171612D+01
     .113807618618D-05  .195437069051D-01  .200048089027D-05  .515364194298D+04
     .323984000000D+06  .402331352234D-06 -.252827122844D+01  .372529029846D-06
     .993266358399D+00  .354656250000D+03  .967638467946D+00 -.804712090917D-08
    -.571452374714D-10  .100000000000D+01  .151700000000D+04  .000000000000D+00
     .240000000000D+01  .000000000000D+00 -.651925802231D-08  .170000000000D+02
     .321906000000D+06  .400000000000D+01
10 09  2  4 17 59 44.0 -.105863437057D-04 -.568434188608D-12  .000000000000D+00
     .200000000000D+02  .109125000000D+03  .444482800207D-08  .322674278347D+00
     .590085983276D-05  .851276295725D-02  .710040330887D-05  .515378590012D+04
     .323984000000D+06  .167638063431D-07  .268056882564D+01  .126659870148D-06
     .960062834448D+00  .238375000000D+03  .590198635616D+00 -.814391065514D-08
    -.150006248362D-09  .100000000000D+01  .151700000000D+04  .000000000000D+00
     .240000000000D+01  .000000000000D+00 -.232830643654D-08  .200000000000D+02
     .322956000000D+06  .400000000000D+01
 9 09  2  4 19 59 28.0  .387039035559D-04  .204636307899D-11  .000000000000D+00
     .930000000000D+02 -.118656250000D+03  .390194824609D-08 -.223737141081D+01
    -.592507421970D-05  .201723403297D-01  .501610338688D-05  .515365538788D+04
     .331168000000D+06  .333413481712D-06 -.156785600775D+01  .260770320892D-07
     .974616641312D+00  .284937500000D+03  .145910388464D+01 -.760995984252D-08
    -.607168148133D-11  .100000000000D+01  .151700000000D+04  .000000000000D+00
     .240000000000D+01  .000000000000D+00 -.558793544769D-08  .930000000000D+02
     .324006000000D+06  .400000000000D+01
 4 09  2  4 19 59 44.0 -.324646476656D-03 -.138697942020D-10  .000000000000D+00
     .400000000000D+01  .415312500000D+02  .503556689443D-08 -.293692767718D+01
     .198371708393D-05  .863497052342D-02  .908039510250D-05  .515367506981D+04
     .331184000000D+06 -.115483999252D-06  .161513316789D+01 -.197440385818D-06
     .940718052797D+00  .194125000000D+03  .473519228617D+00 -.799604735318D-08
    -.486448833975D-09  .100000000000D+01  .151700000000D+04  .000000000000D+00
     .240000000000D+01  .000000000000D+00 -.605359673500D-08  .400000000000D+01
     .324006000000D+06  .400000000000D+01
10 09  2  4 19 59 44.0 -.105910003185D-04 -.568434188608D-12  .000000000000D+00
     .210000000000D+02  .122875000000D+03  .444089926699D-08  .137265007677D+01
     .660866498947D-05  .851467670873D-02  .802055001259D-05  .515378993797D+04
     .331184000000D+06 -.707805156708D-07  .268051054737D+01  .912696123123D-07
     .960061539765D+00  .226375000000D+03  .590332279035D+00 -.811712382507D-08
    -.195722438339D-09  .100000000000D+01  .151700000000D+04  .000000000000D+00
     .240000000000D+01  .000000000000D+00 -.232830643654D-08  .210000000000D+02
     .324006000000D+06  .400000000000D+01
14 09  2  4 19 59 44.0 -.158765353262D-03  .534328137292D-11  .000000000000D+00
     .280000000000D+02  .181562500000D+02  .393444959990D-08  .790555768861D+00
     .914558768272D-06  .442090909928D-02  .258907675743D-05  .515357329941D+04
     .331184000000D+06 -.186264514923D-07 -.254503303950D+01  .298023223877D-07
     .988976570570D+00  .345125000000D+03 -.209905561512D+01 -.810355183117D-08
    -.617882880159D-10  .100000000000D+01  .151700000000D+04  .000000000000D+00
     .240000000000D+01  .000000000000D+00 -.931322574615D-08  .280000000000D+02
     .324006000000D+06  .400000000000D+01
23 09  2  4 19 59 44.0  .386424362659D-03  .682121026330D-12  .000000000000D+00
     .410000000000D+02  .148750000000D+02  .437482508617D-08  .279176629970D+00
     .622123479843D-06  .577418692410D-02  .232458114624D-05  .515364834976D+04
     .331184000000D+06  .502914190292D-07 -.257557793660D+01 -.894069671631D-07
     .971028275888D+00  .337000000000D+03  .288264289660D+01 -.833499004293D-08
    -.621454457501D-10  .100000000000D+01  .151700000000D+04  .000000000000D+00
     .240000000000D+01  .000000000000D+00 -.200234353542D-07  .410000000000D+02
     .324006000000D+06  .400000000000D+01
26 09  2  4 19 59 44.0  .420445576310D-04  .306954461848D-11  .000000000000D+00
     .180000000000D+02  .184375000000D+02  .403909681602D-08 -.159696827648D+00
     .116601586342D-05  .195439291419D-01  .204890966415D-05  .515364245796D+04
     .331184000000D+06 -.596046447754D-07 -.252833131634D+01  .284984707832D-06
     .993264272278D+00  .356406250000D+03  .967630021057D+00 -.845106630655D-08
    -.278583032673D-10  .100000000000D+01  .151700000000D+04  .000000000000D+00
     .240000000000D+01  .000000000000D+00 -.651925802231D-08  .180000000000D+02
     .324006000000D+06  .400000000000D+01
27 09  2  4 19 59 44.0  .220006331801D-04  .306954461848D-11  .000000000000D+00
     .150000000000D+02 -.135687500000D+03  .403016787267D-08  .227610562238D+01
    -.712834298611D-05  .210713414708D-01  .502355396748D-05  .515518716240D+04
     .331184000000D+06  .286847352982D-06 -.159189667597D+01 -.150874257088D-06
     .972655080291D+00  .284375000000D+03 -.165197803245D+01 -.765889045210D-08
    -.128576784311D-09  .100000000000D+01  .151700000000D+04  .000000000000D+00
     .240000000000D+01  .000000000000D+00 -.419095158577D-08  .150000000000D+02
     .324006000000D+06  .400000000000D+01
